[{"OBJECT_NAME":"ONEWEB-0311","OBJECT_ID":"2021-075Y","EPOCH":"2025-09-29T18:52:40.495584","MEAN_MOTION":13.17647509,"ECCENTRICITY":0.0001903,"INCLINATION":87.9072,"RA_OF_ASC_NODE":57.6402,"ARG_OF_PERICENTER":83.406,"MEAN_ANOMALY":276.7288,"EPHEMERIS_TYPE":0,"CLASSIFICATION_TYPE":"U","NORAD_CAT_ID":49097,"ELEMENT_SET_NO":999,"REV_AT_EPOCH":19933,"BSTAR":-0.00024904,"MEAN_MOTION_DOT":-8.4e-7,"MEAN_MOTION_DDOT":0},{"OBJECT_NAME":"ONEWEB-0312","OBJECT_ID":"2021-075Z","EPOCH":"2025-09-29T19:14:32.987616","MEAN_MOTION":13.17650578,"ECCENTRICITY":0.0002003,"INCLINATION":87.9066,"RA_OF_ASC_NODE":57.6683,"ARG_OF_PERICENTER":94.0099,"MEAN_ANOMALY":266.1261,"EPHEMERIS_TYPE":0,"CLASSIFICATION_TYPE":"U","NORAD_CAT_ID":49098,"ELEMENT_SET_NO":999,"REV_AT_EPOCH":19931,"BSTAR":4.4573e-5,"MEAN_MOTION_DOT":3.0e-7,"MEAN_MOTION_DDOT":0},{"OBJECT_NAME":"ONEWEB-0313","OBJECT_ID":"2021-075AA","EPOCH":"2025-09-29T19:21:38.218176","MEAN_MOTION":13.17651685,"ECCENTRICITY":0.0001731,"INCLINATION":87.9063,"RA_OF_ASC_NODE":57.6778,"ARG_OF_PERICENTER":89.8802,"MEAN_ANOMALY":270.2528,"EPHEMERIS_TYPE":0,"CLASSIFICATION_TYPE":"U","NORAD_CAT_ID":49099,"ELEMENT_SET_NO":999,"REV_AT_EPOCH":19930,"BSTAR":0.00025562,"MEAN_MOTION_DOT":1.12e-6,"MEAN_MOTION_DDOT":0},{"OBJECT_NAME":"ONEWEB-0314","OBJECT_ID":"2021-075AB","EPOCH":"2025-09-28T20:41:04.793856","MEAN_MOTION":13.17651991,"ECCENTRICITY":0.00020391,"INCLINATION":87.9079,"RA_OF_ASC_NODE":57.8082,"ARG_OF_PERICENTER":94.3738,"MEAN_ANOMALY":265.7626,"EPHEMERIS_TYPE":0,"CLASSIFICATION_TYPE":"U","NORAD_CAT_ID":49100,"ELEMENT_SET_NO":999,"REV_AT_EPOCH":19915,"BSTAR":0.00016448717,"MEAN_MOTION_DOT":7.7e-7,"MEAN_MOTION_DDOT":0},{"OBJECT_NAME":"ONEWEB-0315","OBJECT_ID":"2021-075AC","EPOCH":"2025-09-29T18:47:51.616320","MEAN_MOTION":13.12442181,"ECCENTRICITY":0.0001828,"INCLINATION":87.8928,"RA_OF_ASC_NODE":42.373,"ARG_OF_PERICENTER":85.6607,"MEAN_ANOMALY":274.4731,"EPHEMERIS_TYPE":0,"CLASSIFICATION_TYPE":"U","NORAD_CAT_ID":49101,"ELEMENT_SET_NO":999,"REV_AT_EPOCH":20101,"BSTAR":-0.00082949,"MEAN_MOTION_DOT":-2.86e-6,"MEAN_MOTION_DDOT":0},{"OBJECT_NAME":"ONEWEB-0316","OBJECT_ID":"2021-075AD","EPOCH":"2025-09-29T19:50:16.981152","MEAN_MOTION":13.18686395,"ECCENTRICITY":0.0001751,"INCLINATION":87.9217,"RA_OF_ASC_NODE":27.1685,"ARG_OF_PERICENTER":93.9277,"MEAN_ANOMALY":266.2056,"EPHEMERIS_TYPE":0,"CLASSIFICATION_TYPE":"U","NORAD_CAT_ID":49102,"ELEMENT_SET_NO":999,"REV_AT_EPOCH":20289,"BSTAR":0.00016759,"MEAN_MOTION_DOT":7.9e-7,"MEAN_MOTION_DDOT":0},{"OBJECT_NAME":"ONEWEB-0317","OBJECT_ID":"2021-075AE","EPOCH":"2025-09-29T18:38:30.399072","MEAN_MOTION":13.12441966,"ECCENTRICITY":0.0001848,"INCLINATION":87.8931,"RA_OF_ASC_NODE":42.3894,"ARG_OF_PERICENTER":125.738,"MEAN_ANOMALY":234.392,"EPHEMERIS_TYPE":0,"CLASSIFICATION_TYPE":"U","NORAD_CAT_ID":49103,"ELEMENT_SET_NO":999,"REV_AT_EPOCH":20103,"BSTAR":-0.0015297,"MEAN_MOTION_DOT":-5.38e-6,"MEAN_MOTION_DDOT":0},{"OBJECT_NAME":"ONEWEB-0318","OBJECT_ID":"2021-075AF","EPOCH":"2025-09-29T19:45:32.499648","MEAN_MOTION":13.18687661,"ECCENTRICITY":0.0001794,"INCLINATION":87.9215,"RA_OF_ASC_NODE":27.1555,"ARG_OF_PERICENTER":92.0378,"MEAN_ANOMALY":268.096,"EPHEMERIS_TYPE":0,"CLASSIFICATION_TYPE":"U","NORAD_CAT_ID":49104,"ELEMENT_SET_NO":999,"REV_AT_EPOCH":20285,"BSTAR":0.00012223,"MEAN_MOTION_DOT":6.1e-7,"MEAN_MOTION_DDOT":0},{"OBJECT_NAME":"ONEWEB-0319","OBJECT_ID":"2021-075AG","EPOCH":"2025-09-29T18:55:06.598848","MEAN_MOTION":13.17650901,"ECCENTRICITY":0.0001957,"INCLINATION":87.9068,"RA_OF_ASC_NODE":57.6646,"ARG_OF_PERICENTER":82.1927,"MEAN_ANOMALY":277.9427,"EPHEMERIS_TYPE":0,"CLASSIFICATION_TYPE":"U","NORAD_CAT_ID":49105,"ELEMENT_SET_NO":999,"REV_AT_EPOCH":19931,"BSTAR":0.00030349,"MEAN_MOTION_DOT":1.31e-6,"MEAN_MOTION_DDOT":0},{"OBJECT_NAME":"ONEWEB-0323","OBJECT_ID":"2021-075AH","EPOCH":"2025-09-28T20:27:08.017632","MEAN_MOTION":13.12442428,"ECCENTRICITY":0.00021966,"INCLINATION":87.8929,"RA_OF_ASC_NODE":42.5596,"ARG_OF_PERICENTER":84.4399,"MEAN_ANOMALY":275.698,"EPHEMERIS_TYPE":0,"CLASSIFICATION_TYPE":"U","NORAD_CAT_ID":49106,"ELEMENT_SET_NO":999,"REV_AT_EPOCH":20027,"BSTAR":-0.00096268699,"MEAN_MOTION_DOT":-3.34e-6,"MEAN_MOTION_DDOT":0},{"OBJECT_NAME":"ONEWEB-0329","OBJECT_ID":"2021-075AJ","EPOCH":"2025-09-29T19:07:17.230080","MEAN_MOTION":13.17650304,"ECCENTRICITY":0.0001792,"INCLINATION":87.9065,"RA_OF_ASC_NODE":57.6665,"ARG_OF_PERICENTER":90.3226,"MEAN_ANOMALY":269.8111,"EPHEMERIS_TYPE":0,"CLASSIFICATION_TYPE":"U","NORAD_CAT_ID":49107,"ELEMENT_SET_NO":999,"REV_AT_EPOCH":19929,"BSTAR":0.00011796,"MEAN_MOTION_DOT":5.9e-7,"MEAN_MOTION_DDOT":0},{"OBJECT_NAME":"ONEWEB-0330","OBJECT_ID":"2021-075AK","EPOCH":"2025-09-29T19:08:29.378400","MEAN_MOTION":13.17650056,"ECCENTRICITY":0.0001843,"INCLINATION":87.9069,"RA_OF_ASC_NODE":57.6705,"ARG_OF_PERICENTER":95.5541,"MEAN_ANOMALY":264.5801,"EPHEMERIS_TYPE":0,"CLASSIFICATION_TYPE":"U","NORAD_CAT_ID":49108,"ELEMENT_SET_NO":999,"REV_AT_EPOCH":19933,"BSTAR":0.00040203,"MEAN_MOTION_DOT":1.69e-6,"MEAN_MOTION_DDOT":0},{"OBJECT_NAME":"ONEWEB-0292","OBJECT_ID":"2021-083A","EPOCH":"2025-09-29T18:58:22.999008","MEAN_MOTION":13.1347052,"ECCENTRICITY":0.0001835,"INCLINATION":87.9049,"RA_OF_ASC_NODE":12.0019,"ARG_OF_PERICENTER":95.8033,"MEAN_ANOMALY":264.3305,"EPHEMERIS_TYPE":0,"CLASSIFICATION_TYPE":"U","NORAD_CAT_ID":49186,"ELEMENT_SET_NO":999,"REV_AT_EPOCH":19674,"BSTAR":0.00020636,"MEAN_MOTION_DOT":8.8e-7,"MEAN_MOTION_DDOT":0},{"OBJECT_NAME":"ONEWEB-0303","OBJECT_ID":"2021-083B","EPOCH":"2025-09-29T19:40:47.834976","MEAN_MOTION":13.18684614,"ECCENTRICITY":0.0001826,"INCLINATION":87.9218,"RA_OF_ASC_NODE":27.1569,"ARG_OF_PERICENTER":93.4095,"MEAN_ANOMALY":266.7246,"EPHEMERIS_TYPE":0,"CLASSIFICATION_TYPE":"U","NORAD_CAT_ID":49187,"ELEMENT_SET_NO":999,"REV_AT_EPOCH":19566,"BSTAR":4.2232e-5,"MEAN_MOTION_DOT":3.0e-7,"MEAN_MOTION_DDOT":0},{"OBJECT_NAME":"ONEWEB-0306","OBJECT_ID":"2021-083C","EPOCH":"2025-09-29T19:26:32.970912","MEAN_MOTION":13.18685398,"ECCENTRICITY":0.0001682,"INCLINATION":87.9218,"RA_OF_ASC_NODE":27.1446,"ARG_OF_PERICENTER":105.168,"MEAN_ANOMALY":254.9638,"EPHEMERIS_TYPE":0,"CLASSIFICATION_TYPE":"U","NORAD_CAT_ID":49188,"ELEMENT_SET_NO":999,"REV_AT_EPOCH":19570,"BSTAR":0.00018111,"MEAN_MOTION_DOT":8.4e-7,"MEAN_MOTION_DDOT":0},{"OBJECT_NAME":"ONEWEB-0307","OBJECT_ID":"2021-083D","EPOCH":"2025-09-29T18:49:53.671008","MEAN_MOTION":13.13436321,"ECCENTRICITY":0.0001817,"INCLINATION":87.9035,"RA_OF_ASC_NODE":11.9996,"ARG_OF_PERICENTER":114.7003,"MEAN_ANOMALY":245.4316,"EPHEMERIS_TYPE":0,"CLASSIFICATION_TYPE":"U","NORAD_CAT_ID":49189,"ELEMENT_SET_NO":999,"REV_AT_EPOCH":19674,"BSTAR":-0.011678,"MEAN_MOTION_DOT":-4.248e-5,"MEAN_MOTION_DDOT":0},{"OBJECT_NAME":"ONEWEB-0320","OBJECT_ID":"2021-083E","EPOCH":"2025-09-29T19:35:59.182080","MEAN_MOTION":13.18746313,"ECCENTRICITY":0.0001667,"INCLINATION":87.9216,"RA_OF_ASC_NODE":27.1706,"ARG_OF_PERICENTER":82.496,"MEAN_ANOMALY":277.6362,"EPHEMERIS_TYPE":0,"CLASSIFICATION_TYPE":"U","NORAD_CAT_ID":49190,"ELEMENT_SET_NO":999,"REV_AT_EPOCH":19566,"BSTAR":-0.024022,"MEAN_MOTION_DOT":-9.456e-5,"MEAN_MOTION_DDOT":0}]
