ONEWEB-0311             
1 49097U 21075Y   25272.78657981 -.00000084  00000+0 -24904-3 0  9998
2 49097  87.9072  57.6402 0001903  83.4060 276.7288 13.17647509199330
ONEWEB-0312             
1 49098U 21075Z   25272.80177069  .00000030  00000+0  44573-4 0  9990
2 49098  87.9066  57.6683 0002003  94.0099 266.1261 13.17650578199319
ONEWEB-0313             
1 49099U 21075AA  25272.80669234  .00000112  00000+0  25562-3 0  9998
2 49099  87.9063  57.6778 0001731  89.8802 270.2528 13.17651685199304
ONEWEB-0314             
1 49100U 21075AB  25271.86186104  .00000077  00000+0  16449-3 0  9990
2 49100  87.9079  57.8082 0002039  94.3738 265.7626 13.17651991199156
ONEWEB-0315             
1 49101U 21075AC  25272.78323630 -.00000286  00000+0 -82949-3 0  9992
2 49101  87.8928  42.3730 0001828  85.6607 274.4731 13.12442181201018
ONEWEB-0316             
1 49102U 21075AD  25272.82658543  .00000079  00000+0  16759-3 0  9996
2 49102  87.9217  27.1685 0001751  93.9277 266.2056 13.18686395202890
ONEWEB-0317             
1 49103U 21075AE  25272.77674073 -.00000538  00000+0 -15297-2 0  9994
2 49103  87.8931  42.3894 0001848 125.7380 234.3920 13.12441966201038
ONEWEB-0318             
1 49104U 21075AF  25272.82329282  .00000061  00000+0  12223-3 0  9996
2 49104  87.9215  27.1555 0001794  92.0378 268.0960 13.18687661202852
ONEWEB-0319             
1 49105U 21075AG  25272.78827082  .00000131  00000+0  30349-3 0  9990
2 49105  87.9068  57.6646 0001957  82.1927 277.9427 13.17650901199318
ONEWEB-0323             
1 49106U 21075AH  25271.85217613 -.00000334  00000+0 -96269-3 0  9991
2 49106  87.8929  42.5596 0002196  84.4399 275.6980 13.12442428200270
ONEWEB-0329             
1 49107U 21075AJ  25272.79672720  .00000059  00000+0  11796-3 0  9994
2 49107  87.9065  57.6665 0001792  90.3226 269.8111 13.17650304199292
ONEWEB-0330             
1 49108U 21075AK  25272.79756225  .00000169  00000+0  40203-3 0  9995
2 49108  87.9069  57.6705 0001843  95.5541 264.5801 13.17650056199333
ONEWEB-0292             
1 49186U 21083A   25272.79054397  .00000088  00000+0  20636-3 0  9999
2 49186  87.9049  12.0019 0001835  95.8033 264.3305 13.13470520196741
ONEWEB-0303             
1 49187U 21083B   25272.81999809  .00000030  00000+0  42232-4 0  9993
2 49187  87.9218  27.1569 0001826  93.4095 266.7246 13.18684614195665
ONEWEB-0306             
1 49188U 21083C   25272.81010383  .00000084  00000+0  18111-3 0  9992
2 49188  87.9218  27.1446 0001682 105.1680 254.9638 13.18685398195700
ONEWEB-0307             
1 49189U 21083D   25272.78464897 -.00004248  00000+0 -11678-1 0  9999
2 49189  87.9035  11.9996 0001817 114.7003 245.4316 13.13436321196742
ONEWEB-0320             
1 49190U 21083E   25272.81665720 -.00009456  00000+0 -24022-1 0  9996
2 49190  87.9216  27.1706 0001667  82.4960 277.6362 13.18746313195667
